{
  "type": "FeatureCollection",
  "features": [
    {
      "type": "Feature",
      "properties": {
        "norad_id": 36186,
        "name": "FENGYUN 1C DEB",
        "group": "fengyun-1c-debris",
        "lat": -31.472301620718316,
        "lon": -155.5991812411424,
        "alt_km": 484.53881930792795,
        "timestamp": "2025-12-02T23:34:15.804404+00:00",
        "meta_object_name": "FENGYUN 1C DEB",
        "meta_object_id": "1999-025DTK",
        "meta_epoch": "2025-11-12T08:52:41.965824",
        "meta_mean_motion": 15.00729098,
        "meta_eccentricity": 0.00172478,
        "meta_inclination": 98.9906,
        "meta_ra_of_asc_node": 174.6895,
        "meta_arg_of_pericenter": 41.2051,
        "meta_mean_anomaly": 133.808,
        "meta_ephemeris_type": 0,
        "meta_classification_type": "U",
        "meta_norad_cat_id": 36186,
        "meta_element_set_no": 999,
        "meta_rev_at_epoch": 61113,
        "meta_bstar": 0.034725409,
        "meta_mean_motion_dot": 0.00466454,
        "meta_mean_motion_ddot": 0,
        "tle_line1": "1 36186U 99025DTK 25316.36993016  .00466454  00000+0  34725-1 0  9993",
        "tle_line2": "2 36186  98.9906 174.6895 0017247  41.2051 133.8080 15.00729098611137"
      },
      "geometry": {
        "type": "Point",
        "coordinates": [
          -155.5991812411424,
          -31.472301620718316
        ]
      }
    },
    {
      "type": "Feature",
      "properties": {
        "norad_id": 36188,
        "name": "FENGYUN 1C DEB",
        "group": "fengyun-1c-debris",
        "lat": -63.69693745186548,
        "lon": -120.74469139521683,
        "alt_km": 699.4205979339395,
        "timestamp": "2025-12-02T23:34:15.804415+00:00",
        "meta_object_name": "FENGYUN 1C DEB",
        "meta_object_id": "1999-025DTM",
        "meta_epoch": "2025-12-01T05:20:13.473024",
        "meta_mean_motion": 14.6025584,
        "meta_eccentricity": 0.0047349,
        "meta_inclination": 98.5854,
        "meta_ra_of_asc_node": 75.2295,
        "meta_arg_of_pericenter": 340.7793,
        "meta_mean_anomaly": 19.1618,
        "meta_ephemeris_type": 0,
        "meta_classification_type": "U",
        "meta_norad_cat_id": 36188,
        "meta_element_set_no": 999,
        "meta_rev_at_epoch": 87884,
        "meta_bstar": 0.002895,
        "meta_mean_motion_dot": 0.00014165,
        "meta_mean_motion_ddot": 0,
        "tle_line1": "1 36188U 99025DTM 25335.22237816  .00014165  00000+0  28950-2 0  9992",
        "tle_line2": "2 36188  98.5854  75.2295 0047349 340.7793  19.1618 14.60255840878843"
      },
      "geometry": {
        "type": "Point",
        "coordinates": [
          -120.74469139521683,
          -63.69693745186548
        ]
      }
    },
    {
      "type": "Feature",
      "properties": {
        "norad_id": 36198,
        "name": "FENGYUN 1C DEB",
        "group": "fengyun-1c-debris",
        "lat": 12.937186509469555,
        "lon": 4.7669004383470615,
        "alt_km": 912.2631303134185,
        "timestamp": "2025-12-02T23:34:15.804425+00:00",
        "meta_object_name": "FENGYUN 1C DEB",
        "meta_object_id": "1999-025DTX",
        "meta_epoch": "2025-12-01T13:23:36.508416",
        "meta_mean_motion": 14.07811916,
        "meta_eccentricity": 0.00972077,
        "meta_inclination": 98.6251,
        "meta_ra_of_asc_node": 5.4045,
        "meta_arg_of_pericenter": 146.6779,
        "meta_mean_anomaly": 214.0561,
        "meta_ephemeris_type": 0,
        "meta_classification_type": "U",
        "meta_norad_cat_id": 36198,
        "meta_element_set_no": 999,
        "meta_rev_at_epoch": 63430,
        "meta_bstar": 0.0014591366,
        "meta_mean_motion_dot": 2.541e-05,
        "meta_mean_motion_ddot": 0,
        "tle_line1": "1 36198U 99025DTX 25335.55806144  .00002541  00000+0  14591-2 0  9996",
        "tle_line2": "2 36198  98.6251   5.4045 0097207 146.6779 214.0561 14.07811916634306"
      },
      "geometry": {
        "type": "Point",
        "coordinates": [
          4.7669004383470615,
          12.937186509469555
        ]
      }
    },
    {
      "type": "Feature",
      "properties": {
        "norad_id": 36199,
        "name": "FENGYUN 1C DEB",
        "group": "fengyun-1c-debris",
        "lat": -2.221635251142542,
        "lon": 178.26702161115162,
        "alt_km": 791.3083334247021,
        "timestamp": "2025-12-02T23:34:15.804435+00:00",
        "meta_object_name": "FENGYUN 1C DEB",
        "meta_object_id": "1999-025DTY",
        "meta_epoch": "2025-11-25T07:38:24.665856",
        "meta_mean_motion": 14.29614285,
        "meta_eccentricity": 0.00930984,
        "meta_inclination": 98.2914,
        "meta_ra_of_asc_node": 351.2942,
        "meta_arg_of_pericenter": 118.486,
        "meta_mean_anomaly": 242.5739,
        "meta_ephemeris_type": 0,
        "meta_classification_type": "U",
        "meta_norad_cat_id": 36199,
        "meta_element_set_no": 999,
        "meta_rev_at_epoch": 64731,
        "meta_bstar": 0.00030160311,
        "meta_mean_motion_dot": 7.69e-06,
        "meta_mean_motion_ddot": 0,
        "tle_line1": "1 36199U 99025DTY 25329.31834104  .00000769  00000+0  30160-3 0  9992",
        "tle_line2": "2 36199  98.2914 351.2942 0093098 118.4860 242.5739 14.29614285647311"
      },
      "geometry": {
        "type": "Point",
        "coordinates": [
          178.26702161115162,
          -2.221635251142542
        ]
      }
    },
    {
      "type": "Feature",
      "properties": {
        "norad_id": 36203,
        "name": "FENGYUN 1C DEB",
        "group": "fengyun-1c-debris",
        "lat": 30.43277821463958,
        "lon": -85.89703733245925,
        "alt_km": 682.8821302097076,
        "timestamp": "2025-12-02T23:34:15.804445+00:00",
        "meta_object_name": "FENGYUN 1C DEB",
        "meta_object_id": "1999-025DUC",
        "meta_epoch": "2025-12-02T02:18:32.511168",
        "meta_mean_motion": 14.78101467,
        "meta_eccentricity": 0.00828267,
        "meta_inclination": 99.0947,
        "meta_ra_of_asc_node": 278.5034,
        "meta_arg_of_pericenter": 181.911,
        "meta_mean_anomaly": 178.1793,
        "meta_ephemeris_type": 0,
        "meta_classification_type": "U",
        "meta_norad_cat_id": 36203,
        "meta_element_set_no": 999,
        "meta_rev_at_epoch": 63272,
        "meta_bstar": 0.0013137928,
        "meta_mean_motion_dot": 0.00010006,
        "meta_mean_motion_ddot": 0,
        "tle_line1": "1 36203U 99025DUC 25336.09620962  .00010006  00000+0  13138-2 0  9996",
        "tle_line2": "2 36203  99.0947 278.5034 0082826 181.9110 178.1793 14.78101467632725"
      },
      "geometry": {
        "type": "Point",
        "coordinates": [
          -85.89703733245925,
          30.43277821463958
        ]
      }
    },
    {
      "type": "Feature",
      "properties": {
        "norad_id": 36204,
        "name": "FENGYUN 1C DEB",
        "group": "fengyun-1c-debris",
        "lat": -75.89165385067983,
        "lon": -147.31561890112258,
        "alt_km": 779.7524788134078,
        "timestamp": "2025-12-02T23:34:15.804455+00:00",
        "meta_object_name": "FENGYUN 1C DEB",
        "meta_object_id": "1999-025DUD",
        "meta_epoch": "2025-11-15T00:07:08.690880",
        "meta_mean_motion": 14.34305453,
        "meta_eccentricity": 0.00191329,
        "meta_inclination": 99.2913,
        "meta_ra_of_asc_node": 54.0163,
        "meta_arg_of_pericenter": 239.43,
        "meta_mean_anomaly": 120.4995,
        "meta_ephemeris_type": 0,
        "meta_classification_type": "U",
        "meta_norad_cat_id": 36204,
        "meta_element_set_no": 999,
        "meta_rev_at_epoch": 94030,
        "meta_bstar": 0.0018806033,
        "meta_mean_motion_dot": 5.247e-05,
        "meta_mean_motion_ddot": 0,
        "tle_line1": "1 36204U 99025DUD 25319.00496170  .00005247  00000+0  18806-2 0  9999",
        "tle_line2": "2 36204  99.2913  54.0163 0019132 239.4300 120.4995 14.34305453940304"
      },
      "geometry": {
        "type": "Point",
        "coordinates": [
          -147.31561890112258,
          -75.89165385067983
        ]
      }
    },
    {
      "type": "Feature",
      "properties": {
        "norad_id": 36206,
        "name": "FENGYUN 1C DEB",
        "group": "fengyun-1c-debris",
        "lat": 8.55101896549029,
        "lon": -0.7672531035147538,
        "alt_km": 804.3125733927482,
        "timestamp": "2025-12-02T23:34:15.804465+00:00",
        "meta_object_name": "FENGYUN 1C DEB",
        "meta_object_id": "1999-025DUF",
        "meta_epoch": "2025-11-26T07:02:56.668416",
        "meta_mean_motion": 14.21517518,
        "meta_eccentricity": 0.00312218,
        "meta_inclination": 98.4807,
        "meta_ra_of_asc_node": 354.0922,
        "meta_arg_of_pericenter": 66.8272,
        "meta_mean_anomaly": 293.619,
        "meta_ephemeris_type": 0,
        "meta_classification_type": "U",
        "meta_norad_cat_id": 36206,
        "meta_element_set_no": 999,
        "meta_rev_at_epoch": 64187,
        "meta_bstar": 0.00073137291,
        "meta_mean_motion_dot": 1.568e-05,
        "meta_mean_motion_ddot": 0,
        "tle_line1": "1 36206U 99025DUF 25330.29371144  .00001568  00000+0  73137-3 0  9999",
        "tle_line2": "2 36206  98.4807 354.0922 0031221  66.8272 293.6190 14.21517518641871"
      },
      "geometry": {
        "type": "Point",
        "coordinates": [
          -0.7672531035147538,
          8.55101896549029
        ]
      }
    }
  ]
}